STARLINK-36121          
1 66940U 25286R   25355.25001157 -.00047742  00000+0 -32344-3 0  9993
2 66940  53.1572   7.6870 0000957  72.7346 107.2123 15.74195176  3362
STARLINK-36088          
1 66941U 25286S   25355.25001157 -.00008790  00000+0 -55823-4 0  9992
2 66941  53.1575   7.6954 0001121  74.2545 101.8586 15.74172172  3354
STARLINK-36100          
1 66942U 25286T   25355.25001157  .00051290  00000+0  35335-3 0  9999
2 66942  53.1572   7.6830 0001210  88.5150  93.3420 15.74124266  3290
STARLINK-36109          
1 66943U 25286U   25355.25001157 -.00060734  00000+0 -41307-3 0  9991
2 66943  53.1573   7.6788 0001099  89.1536  94.6200 15.74205854  3297
STARLINK-36112          
1 66944U 25286V   25355.25001157 -.00049169  00000+0 -33334-3 0  9992
2 66944  53.1572   7.6751 0000720  96.4142  89.2788 15.74192677  3368
STARLINK-36110          
1 66945U 25286W   25355.25001157 -.00040334  00000+0 -27239-3 0  9995
2 66945  53.1570   7.6706 0001084 100.3382  87.2725 15.74190651  3361
STARLINK-36115          
1 66946U 25286X   25355.25001157 -.00029795  00000+0 -19989-3 0  9997
2 66946  53.1571   7.6670 0001130  95.0774  94.4512 15.74185207  3365
STARLINK-36089          
1 66947U 25286Y   25355.25001157 -.00027919  00000+0 -18701-3 0  9995
2 66947  53.1571   7.6586 0000764  88.1817 105.1821 15.74183903  3369
STARLINK-36116          
1 66948U 25286Z   25355.25001157 -.00067531  00000+0 -46011-3 0  9995
2 66948  53.1574   7.6630 0000690  85.6354 105.8039 15.74208980  3360
STARLINK-36096          
1 66949U 25286AA  25355.25001157 -.00036304  00000+0 -24472-3 0  9997
2 66949  53.1571   7.6551 0000917  95.0121 100.2670 15.74182961  3369
STARLINK-36111          
1 66950U 25286AB  25355.25001157 -.00019840  00000+0 -13142-3 0  9997
2 66950  53.1572   7.6469 0001258 107.6706  91.4023 15.74199673  3369
STARLINK-35999          
1 66951U 25286AC  25355.25001157 -.00070979  00000+0 -48384-3 0  9994
2 66951  53.1574   7.6429 0000944 102.1480  98.8654 15.74216876  3364
