CCSDS_OMM_VERS = 2.0
CREATION_DATE  = 
ORIGINATOR     = 

OBJECT_NAME    = STARLINK-36121
OBJECT_ID      = 2025-286R
CENTER_NAME    = EARTH
REF_FRAME      = TEME
TIME_SYSTEM    = UTC
MEAN_ELEMENT_THEORY = SGP/SGP4

EPOCH          = 2025-12-21T06:00:00.999648
MEAN_MOTION    = 15.74195176
ECCENTRICITY   = .0000957
INCLINATION    = 53.1572
RA_OF_ASC_NODE = 7.6870
ARG_OF_PERICENTER = 72.7346
MEAN_ANOMALY   = 107.2123

EPHEMERIS_TYPE = 0
CLASSIFICATION_TYPE = U
NORAD_CAT_ID   = 66940
ELEMENT_SET_NO = 999
REV_AT_EPOCH   = 336
BSTAR          = -.32344222E-3
MEAN_MOTION_DOT = -.47742E-3
MEAN_MOTION_DDOT = 0

CCSDS_OMM_VERS = 2.0
CREATION_DATE  = 
ORIGINATOR     = 

OBJECT_NAME    = STARLINK-36088
OBJECT_ID      = 2025-286S
CENTER_NAME    = EARTH
REF_FRAME      = TEME
TIME_SYSTEM    = UTC
MEAN_ELEMENT_THEORY = SGP/SGP4

EPOCH          = 2025-12-21T06:00:00.999648
MEAN_MOTION    = 15.74172172
ECCENTRICITY   = .0001121
INCLINATION    = 53.1575
RA_OF_ASC_NODE = 7.6954
ARG_OF_PERICENTER = 74.2545
MEAN_ANOMALY   = 101.8586

EPHEMERIS_TYPE = 0
CLASSIFICATION_TYPE = U
NORAD_CAT_ID   = 66941
ELEMENT_SET_NO = 999
REV_AT_EPOCH   = 335
BSTAR          = -.55822707E-4
MEAN_MOTION_DOT = -.879E-4
MEAN_MOTION_DDOT = 0

CCSDS_OMM_VERS = 2.0
CREATION_DATE  = 
ORIGINATOR     = 

OBJECT_NAME    = STARLINK-36100
OBJECT_ID      = 2025-286T
CENTER_NAME    = EARTH
REF_FRAME      = TEME
TIME_SYSTEM    = UTC
MEAN_ELEMENT_THEORY = SGP/SGP4

EPOCH          = 2025-12-21T06:00:00.999648
MEAN_MOTION    = 15.74124266
ECCENTRICITY   = .00012109
INCLINATION    = 53.1572
RA_OF_ASC_NODE = 7.6830
ARG_OF_PERICENTER = 88.5150
MEAN_ANOMALY   = 93.3420

EPHEMERIS_TYPE = 0
CLASSIFICATION_TYPE = U
NORAD_CAT_ID   = 66942
ELEMENT_SET_NO = 999
REV_AT_EPOCH   = 329
BSTAR          = .35334618E-3
MEAN_MOTION_DOT = .5129E-3
MEAN_MOTION_DDOT = 0

CCSDS_OMM_VERS = 2.0
CREATION_DATE  = 
ORIGINATOR     = 

OBJECT_NAME    = STARLINK-36109
OBJECT_ID      = 2025-286U
CENTER_NAME    = EARTH
REF_FRAME      = TEME
TIME_SYSTEM    = UTC
MEAN_ELEMENT_THEORY = SGP/SGP4

EPOCH          = 2025-12-21T06:00:00.999648
MEAN_MOTION    = 15.74205854
ECCENTRICITY   = .00010999
INCLINATION    = 53.1573
RA_OF_ASC_NODE = 7.6788
ARG_OF_PERICENTER = 89.1536
MEAN_ANOMALY   = 94.6200

EPHEMERIS_TYPE = 0
CLASSIFICATION_TYPE = U
NORAD_CAT_ID   = 66943
ELEMENT_SET_NO = 999
REV_AT_EPOCH   = 329
BSTAR          = -.41306879E-3
MEAN_MOTION_DOT = -.60734E-3
MEAN_MOTION_DDOT = 0

CCSDS_OMM_VERS = 2.0
CREATION_DATE  = 
ORIGINATOR     = 

OBJECT_NAME    = STARLINK-36112
OBJECT_ID      = 2025-286V
CENTER_NAME    = EARTH
REF_FRAME      = TEME
TIME_SYSTEM    = UTC
MEAN_ELEMENT_THEORY = SGP/SGP4

EPOCH          = 2025-12-21T06:00:00.999648
MEAN_MOTION    = 15.74192677
ECCENTRICITY   = .00007207
INCLINATION    = 53.1572
RA_OF_ASC_NODE = 7.6751
ARG_OF_PERICENTER = 96.4142
MEAN_ANOMALY   = 89.2788

EPHEMERIS_TYPE = 0
CLASSIFICATION_TYPE = U
NORAD_CAT_ID   = 66944
ELEMENT_SET_NO = 999
REV_AT_EPOCH   = 336
BSTAR          = -.33334037E-3
MEAN_MOTION_DOT = -.49169E-3
MEAN_MOTION_DDOT = 0

CCSDS_OMM_VERS = 2.0
CREATION_DATE  = 
ORIGINATOR     = 

OBJECT_NAME    = STARLINK-36110
OBJECT_ID      = 2025-286W
CENTER_NAME    = EARTH
REF_FRAME      = TEME
TIME_SYSTEM    = UTC
MEAN_ELEMENT_THEORY = SGP/SGP4

EPOCH          = 2025-12-21T06:00:00.999648
MEAN_MOTION    = 15.74190651
ECCENTRICITY   = .00010849
INCLINATION    = 53.1570
RA_OF_ASC_NODE = 7.6706
ARG_OF_PERICENTER = 100.3382
MEAN_ANOMALY   = 87.2725

EPHEMERIS_TYPE = 0
CLASSIFICATION_TYPE = U
NORAD_CAT_ID   = 66945
ELEMENT_SET_NO = 999
REV_AT_EPOCH   = 336
BSTAR          = -.27239197E-3
MEAN_MOTION_DOT = -.40334E-3
MEAN_MOTION_DDOT = 0

CCSDS_OMM_VERS = 2.0
CREATION_DATE  = 
ORIGINATOR     = 

OBJECT_NAME    = STARLINK-36115
OBJECT_ID      = 2025-286X
CENTER_NAME    = EARTH
REF_FRAME      = TEME
TIME_SYSTEM    = UTC
MEAN_ELEMENT_THEORY = SGP/SGP4

EPOCH          = 2025-12-21T06:00:00.999648
MEAN_MOTION    = 15.74185207
ECCENTRICITY   = .00011309
INCLINATION    = 53.1571
RA_OF_ASC_NODE = 7.6670
ARG_OF_PERICENTER = 95.0774
MEAN_ANOMALY   = 94.4512

EPHEMERIS_TYPE = 0
CLASSIFICATION_TYPE = U
NORAD_CAT_ID   = 66946
ELEMENT_SET_NO = 999
REV_AT_EPOCH   = 336
BSTAR          = -.19989004E-3
MEAN_MOTION_DOT = -.29795E-3
MEAN_MOTION_DDOT = 0

CCSDS_OMM_VERS = 2.0
CREATION_DATE  = 
ORIGINATOR     = 

OBJECT_NAME    = STARLINK-36089
OBJECT_ID      = 2025-286Y
CENTER_NAME    = EARTH
REF_FRAME      = TEME
TIME_SYSTEM    = UTC
MEAN_ELEMENT_THEORY = SGP/SGP4

EPOCH          = 2025-12-21T06:00:00.999648
MEAN_MOTION    = 15.74183903
ECCENTRICITY   = .00007644
INCLINATION    = 53.1571
RA_OF_ASC_NODE = 7.6586
ARG_OF_PERICENTER = 88.1817
MEAN_ANOMALY   = 105.1821

EPHEMERIS_TYPE = 0
CLASSIFICATION_TYPE = U
NORAD_CAT_ID   = 66947
ELEMENT_SET_NO = 999
REV_AT_EPOCH   = 336
BSTAR          = -.18701274E-3
MEAN_MOTION_DOT = -.27919E-3
MEAN_MOTION_DDOT = 0

CCSDS_OMM_VERS = 2.0
CREATION_DATE  = 
ORIGINATOR     = 

OBJECT_NAME    = STARLINK-36116
OBJECT_ID      = 2025-286Z
CENTER_NAME    = EARTH
REF_FRAME      = TEME
TIME_SYSTEM    = UTC
MEAN_ELEMENT_THEORY = SGP/SGP4

EPOCH          = 2025-12-21T06:00:00.999648
MEAN_MOTION    = 15.74208980
ECCENTRICITY   = .00006902
INCLINATION    = 53.1574
RA_OF_ASC_NODE = 7.6630
ARG_OF_PERICENTER = 85.6354
MEAN_ANOMALY   = 105.8039

EPHEMERIS_TYPE = 0
CLASSIFICATION_TYPE = U
NORAD_CAT_ID   = 66948
ELEMENT_SET_NO = 999
REV_AT_EPOCH   = 336
BSTAR          = -.46011E-3
MEAN_MOTION_DOT = -.67531E-3
MEAN_MOTION_DDOT = 0

CCSDS_OMM_VERS = 2.0
CREATION_DATE  = 
ORIGINATOR     = 

OBJECT_NAME    = STARLINK-36096
OBJECT_ID      = 2025-286AA
CENTER_NAME    = EARTH
REF_FRAME      = TEME
TIME_SYSTEM    = UTC
MEAN_ELEMENT_THEORY = SGP/SGP4

EPOCH          = 2025-12-21T06:00:00.999648
MEAN_MOTION    = 15.74182961
ECCENTRICITY   = .00009175
INCLINATION    = 53.1571
RA_OF_ASC_NODE = 7.6551
ARG_OF_PERICENTER = 95.0121
MEAN_ANOMALY   = 100.2670

EPHEMERIS_TYPE = 0
CLASSIFICATION_TYPE = U
NORAD_CAT_ID   = 66949
ELEMENT_SET_NO = 999
REV_AT_EPOCH   = 336
BSTAR          = -.24471788E-3
MEAN_MOTION_DOT = -.36304E-3
MEAN_MOTION_DDOT = 0

CCSDS_OMM_VERS = 2.0
CREATION_DATE  = 
ORIGINATOR     = 

OBJECT_NAME    = STARLINK-36111
OBJECT_ID      = 2025-286AB
CENTER_NAME    = EARTH
REF_FRAME      = TEME
TIME_SYSTEM    = UTC
MEAN_ELEMENT_THEORY = SGP/SGP4

EPOCH          = 2025-12-21T06:00:00.999648
MEAN_MOTION    = 15.74199673
ECCENTRICITY   = .0001258
INCLINATION    = 53.1572
RA_OF_ASC_NODE = 7.6469
ARG_OF_PERICENTER = 107.6706
MEAN_ANOMALY   = 91.4023

EPHEMERIS_TYPE = 0
CLASSIFICATION_TYPE = U
NORAD_CAT_ID   = 66950
ELEMENT_SET_NO = 999
REV_AT_EPOCH   = 336
BSTAR          = -.13141969E-3
MEAN_MOTION_DOT = -.1984E-3
MEAN_MOTION_DDOT = 0

CCSDS_OMM_VERS = 2.0
CREATION_DATE  = 
ORIGINATOR     = 

OBJECT_NAME    = STARLINK-35999
OBJECT_ID      = 2025-286AC
CENTER_NAME    = EARTH
REF_FRAME      = TEME
TIME_SYSTEM    = UTC
MEAN_ELEMENT_THEORY = SGP/SGP4

EPOCH          = 2025-12-21T06:00:00.999648
MEAN_MOTION    = 15.74216876
ECCENTRICITY   = .00009446
INCLINATION    = 53.1574
RA_OF_ASC_NODE = 7.6429
ARG_OF_PERICENTER = 102.1480
MEAN_ANOMALY   = 98.8654

EPHEMERIS_TYPE = 0
CLASSIFICATION_TYPE = U
NORAD_CAT_ID   = 66951
ELEMENT_SET_NO = 999
REV_AT_EPOCH   = 336
BSTAR          = -.48384166E-3
MEAN_MOTION_DOT = -.70979E-3
MEAN_MOTION_DDOT = 0

